#aV2008  6 26  0  0   .00000000      96 DD+AD WGS84 FIT  NGA
## 1485 345600.00000000   900.00000000 54643  .0000000000000
+   31     2  3  4  5  6  7  8  9 10 11 12 13 14 15 16 17 18
+         19 20 21 22 23 24 25 26 27 28 29 30 31 32  0  0  0
+          0  0  0  0  0  0  0  0  0  0  0  0  0  0  0  0  0
+          0  0  0  0  0  0  0  0  0  0  0  0  0  0  0  0  0
+          0  0  0  0  0  0  0  0  0  0  0  0  0  0  0  0  0
++         0  0  0  0  0  0  0  0  0  0  0  0  0  0  0  0  0
++         0  0  0  0  0  0  0  0  0  0  0  0  0  0  0  0  0
++         0  0  0  0  0  0  0  0  0  0  0  0  0  0  0  0  0
++         0  0  0  0  0  0  0  0  0  0  0  0  0  0  0  0  0
++         0  0  0  0  0  0  0  0  0  0  0  0  0  0  0  0  0
%c cc cc ccc ccc cccc cccc cccc cccc ccccc ccccc ccccc ccccc
%c cc cc ccc ccc cccc cccc cccc cccc ccccc ccccc ccccc ccccc
%f  0.0000000  0.000000000  0.00000000000  0.000000000000000
%f  0.0000000  0.000000000  0.00000000000  0.000000000000000
%i    0    0    0    0      0      0      0      0         0
%i    0    0    0    0      0      0      0      0         0
/*      NGA, ST. LOUIS,MO.                                  
/*   EPHEMERIS COMPUTED FROM  3 DAYS OF DATA                
/* CCCCCCCCCCCCCCCCCCCCCCCCCCCCCCCCCCCCCCCCCCCCCCCCCCCCCCCCC
/* CCCCCCCCCCCCCCCCCCCCCCCCCCCCCCCCCCCCCCCCCCCCCCCCCCCCCCCCC
*  2008  6 26  8 45   .00000000                                                 
P  2  10098.668278 -13677.049981  20170.134732    205.162416                    
V  2  25832.934864   3967.219952 -10525.603578      -.013868                    
P  3  -9300.894069  24119.328807  -5477.857515    247.256041                    
V  3  -6904.019325   3777.588818  30122.602165       .051690                    
P  4  21002.891626  -7959.623290  14354.381150   -100.217861                    
V  4  17886.424994   4499.483844 -23156.263464      -.094040                    
P  5 -15606.236601 -20962.367664   4869.780432   -380.325170                    
V  5   -339.072317  -7257.156811 -30452.636675       .124098                    
P  6 -14299.133712  22372.466313   -874.368335    153.548483                    
V  6  -3797.857842   -940.013260  31088.836260       .053142                    
P  7  24515.244704   7609.401138   6948.397473    -14.118144                    
V  7  -9071.383800   1557.990140  30094.746081       .065594                    
P  8  26255.545393    658.583383  -5503.753510   -159.156725                    
V  8   6415.292377   2698.747613  30948.293729      -.017429                    
P  9 -12595.251267 -14162.628649 -19307.162540      2.491443                    
V  9  23110.210872    738.568240 -16010.987651       .016688                    
P 10   1716.287821 -22073.717572  14289.339880     -2.477779                    
V 10   9139.147026  16258.245907  24107.039624      -.002781                    
P 11  16005.935455  12707.375147 -17273.879739     24.199097                    
V 11 -21521.617088   4300.172129 -16594.727715      -.004219                    
P 12 -11731.629214 -23826.154340   1807.486047   -358.039902                    
V 12   1525.935339  -3044.030232 -31660.383587       .005132                    
P 13  15051.916803   3560.337283  21467.785431    261.365909                    
V 13 -16956.712220  21600.917328   8274.672265       .015273                    
P 14 -19921.541790  12746.687881 -11882.188363   -251.144673                    
V 14   8047.052544 -13054.436242 -27368.218658       .043265                    
P 15   3237.908567 -22001.234593 -14495.644772   -132.804804                    
V 15  12546.044239 -13709.183607  23585.536962      -.061906                    
P 16  -5794.792560  18572.579182  18055.375685    119.641323                    
V 16 -10242.950391 -20488.771896  18057.441344      -.016271                    
P 17  19955.756220 -13056.871621 -11478.993588     38.593532                    
V 17  -6815.146160  13279.618612 -27010.191883      -.001027                    
P 18 -17352.098128 -11228.986985 -16696.868308   -163.262786                    
V 18  -6151.949132 -20633.536568  19684.163187       .041908                    
P 19  -3792.069262  21179.700057 -15359.169165     32.625898                    
V 19 -14476.659503  13609.761262  22405.051106       .005984                    
P 20  12933.541539  23012.944857   2985.843232    111.285107                    
V 20  -1266.898870   4912.577659 -31121.577978      -.008688                    
P 21 -26398.548676  -4924.488112   1767.502899     60.034186                    
V 21   2375.747733  -2746.260950  30695.049749      -.012498                    
P 22 -14988.969605   4083.702371 -21390.183600    211.509380                    
V 22  -9819.303224 -25776.541419   1887.415932      -.001117                    
P 23   7021.697271  14570.889378  20948.394163    361.315954                    
V 23 -16631.489131  21009.656954  -9255.373361       .019432                    
P 24 -18366.512910 -13081.540345  13980.209759    104.813546                    
V 24  17773.298242    385.486782  24266.857195       .027860                    
P 25  20288.127016  10077.204960  14076.572792   -177.131322                    
V 25 -17366.850206   1794.543339  24542.687441      -.054841                    
P 26   7371.607667 -22154.926376 -12611.732059    281.210051                    
V 26  11023.207295 -10870.324309  27100.398008       .071288                    
P 27  25538.546889   5393.156527   5952.181352    198.363132                    
V 27  -6765.618206   1892.355637  30688.972161       .028102                    
P 28  15258.972349  -1735.217426 -21318.083519    -20.463168                    
V 28  10215.616321  26004.590294   4778.762967      -.003780                    
P 29 -13642.860139  -7241.877461  21724.879684    -42.297485                    
V 29  16416.554909 -21825.352004   3080.658180       .004668                    
P 30 -17403.381362 -15668.452759  12284.252035     82.989520                    
V 30  -4678.216991 -15660.161398 -25781.863607       .018699                    
P 31 -19437.378498   8965.462299  15998.814994    -24.704546                    
V 31 -19590.582346  -3770.927588 -21857.093844      -.013144                    
P 32   5465.677148  25630.917016  -4493.201945    301.608987                    
V 32  -4273.566185  -5096.534708 -31136.813752       .036945                    
EOF
